      2.10          N: GNSS NAV DATA                        RINEX VERSION / TYPE
fic2rin                                 04/23/2019 00:19:35 PGM / RUN BY / DATE
                                                            END OF HEADER
 4 19  4 22 12  0  0.0 1.522437669337e-04 4.661160346586e-12 0.000000000000e+00
    1.120000000000e+02-1.812500000000e+01 4.790913846506e-09 1.295308744660e+00
   -9.052455425262e-07 3.884226316586e-04 8.998438715935e-06 5.153772201538e+03
    1.296000000000e+05-1.490116119385e-08-2.323870077602e-01-3.725290298462e-08
    9.602335189518e-01 2.086875000000e+02-1.603305247002e+00-8.031763126602e-09
   -4.618049503155e-10 1.000000000000e+00 2.050000000000e+03 0.000000000000e+00
    9.650000000000e+00 6.300000000000e+01-8.847564458847e-09 3.680000000000e+02
    1.224600000000e+05 4.000000000000e+00
 2 19  4 22 14  0  0.0-1.953220926225e-04-9.322320693173e-12 0.000000000000e+00
    1.100000000000e+01-4.875000000000e+01 4.181602751968e-09-2.910113196318e+00
   -2.408400177956e-06 1.890310563613e-02 1.078099012375e-05 5.153697195053e+03
    1.368000000000e+05 2.346932888031e-07-2.420457865717e+00-4.842877388000e-08
    9.543795366871e-01 1.645937500000e+02-1.747768547770e+00-7.481025900471e-09
    3.989451890970e-10 1.000000000000e+00 2.050000000000e+03 0.000000000000e+00
    2.400000000000e+00 0.000000000000e+00-2.048909664154e-08 1.100000000000e+01
    1.296000000000e+05 4.000000000000e+00
 1 19  4 22 14  0  0.0-2.073841169477e-04-8.412825991400e-12 0.000000000000e+00
    4.500000000000e+01-4.096875000000e+01 3.777657354592e-09 3.089083617098e+00
   -2.084299921989e-06 8.679439080879e-03 1.201406121254e-05 5.153660270691e+03
    1.368000000000e+05 7.450580596924e-09-2.352455796769e+00-4.284083843231e-08
    9.752298263510e-01 1.546562500000e+02 6.897586343929e-01-7.483526004611e-09
    4.885917803802e-10 1.000000000000e+00 2.050000000000e+03 0.000000000000e+00
    2.400000000000e+00 0.000000000000e+00 5.587935447693e-09 4.500000000000e+01
    1.296000000000e+05 4.000000000000e+00
 3 19  4 22 14  0  0.0 1.883185468614e-04 1.136868377216e-13 0.000000000000e+00
    5.500000000000e+01 1.262500000000e+01 4.808057417748e-09 2.171367642612e+00
    7.133930921555e-07 2.086534979753e-03 5.640089511871e-06 5.153795619965e+03
    1.368000000000e+05-3.539025783539e-08-1.309815097388e+00 0.000000000000e+00
    9.623177295618e-01 2.686250000000e+02 5.844639250627e-01-8.164625803722e-09
    3.800158291846e-10 1.000000000000e+00 2.050000000000e+03 0.000000000000e+00
    2.400000000000e+00 0.000000000000e+00 1.862645149231e-09 5.500000000000e+01
    1.296000000000e+05 4.000000000000e+00
 8 19  4 22 14  0  0.0-1.408457756042e-04-1.364242052659e-12 0.000000000000e+00
    2.000000000000e+01-1.169687500000e+02 4.199460638678e-09-8.111273214287e-01
   -6.053596735001e-06 4.402800812386e-03 5.891546607018e-06 5.153729452133e+03
    1.368000000000e+05-2.235174179077e-08 2.864686618771e+00-8.568167686462e-08
    9.704916819254e-01 2.722187500000e+02-2.567418917703e-01-8.105694777580e-09
   -3.607293115380e-10 1.000000000000e+00 2.050000000000e+03 0.000000000000e+00
    2.400000000000e+00 0.000000000000e+00 5.122274160385e-09 2.000000000000e+01
    1.296000000000e+05 4.000000000000e+00
 7 19  4 22 14  0  0.0-9.832438081503e-06-7.503331289627e-12 0.000000000000e+00
    4.900000000000e+01 1.124375000000e+02 4.453042629957e-09 2.493794167005e+00
    5.684792995453e-06 1.250765158329e-02 1.106411218643e-05 5.153602617264e+03
    1.368000000000e+05-1.229345798492e-07 7.983814574838e-01-2.402812242508e-07
    9.559696101429e-01 1.635937500000e+02-2.468112504073e+00-7.791753129222e-09
    2.500104139373e-11 1.000000000000e+00 2.050000000000e+03 0.000000000000e+00
    2.400000000000e+00 0.000000000000e+00-1.117587089539e-08 4.900000000000e+01
    1.296000000000e+05 4.000000000000e+00
19 19  4 22 14  0  0.0-3.276886418462e-04 4.433786671143e-12 0.000000000000e+00
    1.000000000000e+01-1.223750000000e+02 3.909091400776e-09 1.717139948354e+00
   -6.716698408127e-06 9.546203073114e-03 6.370246410370e-06 5.153638090134e+03
    1.368000000000e+05 4.842877388000e-08 2.977992609826e+00-1.862645149231e-07
    9.821439399973e-01 2.724062500000e+02 1.380363088520e+00-7.927830225950e-09
   -3.928735076157e-10 1.000000000000e+00 2.050000000000e+03 0.000000000000e+00
    2.400000000000e+00 0.000000000000e+00-1.536682248116e-08 1.000000000000e+01
    1.296000000000e+05 4.000000000000e+00
32 19  4 22 14  0  0.0-1.208302564919e-04 1.750777300913e-11 0.000000000000e+00
    1.300000000000e+01-2.050000000000e+01 4.790913846506e-09-3.886750446414e-01
   -1.007691025734e-06 2.938053454272e-03 8.514150977135e-06 5.153578901291e+03
    1.368000000000e+05-1.676380634308e-08-2.708228527903e-01 8.381903171539e-08
    9.571069645811e-01 2.142187500000e+02-2.527498000163e+00-8.064264480413e-09
   -4.357324357192e-10 1.000000000000e+00 2.050000000000e+03 0.000000000000e+00
    2.400000000000e+00 0.000000000000e+00 4.656612873077e-10 1.300000000000e+01
    1.296000000000e+05 4.000000000000e+00
20 19  4 22 14  0  0.0 5.241679027677e-04 3.410605131648e-13 0.000000000000e+00
    1.200000000000e+01 2.343750000000e+01 5.502372053025e-09 2.722065497594e+00
    1.166015863419e-06 4.363810643554e-03 5.835667252541e-06 5.153677782059e+03
    1.368000000000e+05 1.117587089539e-08-1.430431317880e+00 8.754432201385e-08
    9.300333745945e-01 2.475625000000e+02 2.343258625373e+00-8.477138821144e-09
    3.857303529318e-10 1.000000000000e+00 2.050000000000e+03 0.000000000000e+00
    2.400000000000e+00 0.000000000000e+00-8.847564458847e-09 1.200000000000e+01
    1.296000000000e+05 4.000000000000e+00
16 19  4 22 14  0  0.0-3.455020487309e-05-2.842170943040e-12 0.000000000000e+00
    6.300000000000e+01 3.284375000000e+01 4.399826127562e-09-1.669472003296e-01
    1.799315214157e-06 1.083408750128e-02 1.769512891769e-06 5.153557735443e+03
    1.368000000000e+05 1.117587089539e-07 1.917140764494e+00 8.381903171539e-08
    9.832492579926e-01 3.539062500000e+02 5.690739215388e-01-8.428565369293e-09
   -3.142988060926e-11 1.000000000000e+00 2.050000000000e+03 0.000000000000e+00
    2.400000000000e+00 0.000000000000e+00-1.071020960808e-08 6.300000000000e+01
    1.296000000000e+05 4.000000000000e+00
10 19  4 22 14  0  0.0 6.625289097428e-05-9.890754881781e-12 0.000000000000e+00
    4.000000000000e+01 1.678125000000e+01 4.838415825154e-09 1.003286620172e+00
    8.363276720047e-07 4.502635565586e-03 5.725771188736e-06 5.153654954910e+03
    1.368000000000e+05-5.401670932770e-08-1.313061671021e+00 8.195638656616e-08
    9.623447628250e-01 2.704062500000e+02-2.699308545836e+00-8.194269895661e-09
    2.742971398626e-10 1.000000000000e+00 2.050000000000e+03 0.000000000000e+00
    2.400000000000e+00 0.000000000000e+00 1.862645149231e-09 4.000000000000e+01
    1.296000000000e+05 4.000000000000e+00
 6 19  4 22 14  0  0.0 2.243854105473e-04-9.549694368616e-12 0.000000000000e+00
    4.800000000000e+01-4.512500000000e+01 3.855517740647e-09-3.005983816640e+00
   -2.257525920868e-06 1.609797589481e-03 1.135095953941e-05 5.153572645187e+03
    1.368000000000e+05 3.166496753693e-08-2.360735033884e+00-3.352761268616e-08
    9.748906370910e-01 1.701562500000e+02-1.113049229071e+00-7.601030899161e-09
    3.775157250453e-10 1.000000000000e+00 2.050000000000e+03 0.000000000000e+00
    2.400000000000e+00 0.000000000000e+00 4.190951585770e-09 4.800000000000e+01
    1.296000000000e+05 4.000000000000e+00
 5 19  4 22 14  0  0.0 1.092441380024e-06 0.000000000000e+00 0.000000000000e+00
    9.700000000000e+01 1.028125000000e+01 5.080568768939e-09-2.354540828076e-01
    7.040798664093e-07 5.580798373558e-03 5.954876542091e-06 5.153663681030e+03
    1.368000000000e+05 3.539025783539e-08-1.336183129299e+00 4.284083843231e-08
    9.491907388842e-01 2.582500000000e+02 7.048339086471e-01-8.372491605025e-09
    3.689439394246e-10 1.000000000000e+00 2.050000000000e+03 0.000000000000e+00
    2.400000000000e+00 0.000000000000e+00-1.117587089539e-08 9.700000000000e+01
    1.296000000000e+05 4.000000000000e+00
11 19  4 22 14  0  0.0-6.215353496373e-04 7.503331289627e-12 0.000000000000e+00
    9.600000000000e+01-1.032812500000e+02 5.157000524057e-09 2.374236925115e+00
   -5.159527063370e-06 1.654659840278e-02 1.024641096592e-05 5.153704954147e+03
    1.368000000000e+05 1.899898052216e-07-2.800848504754e+00 9.313225746155e-08
    9.094018438485e-01 1.513437500000e+02 1.878740354265e+00-8.059978587603e-09
   -6.178828801592e-11 1.000000000000e+00 2.050000000000e+03 0.000000000000e+00
    2.400000000000e+00 0.000000000000e+00-1.257285475731e-08 9.600000000000e+01
    1.296000000000e+05 4.000000000000e+00
 9 19  4 22 14  0  0.0 4.244334995747e-04-6.593836587854e-12 0.000000000000e+00
    6.500000000000e+01-1.900000000000e+01 4.924133681361e-09-7.149674763509e-01
   -1.145526766777e-06 1.292217639275e-03 8.871778845787e-06 5.153690597534e+03
    1.368000000000e+05 1.676380634308e-08-2.773589235353e-01-1.676380634308e-08
    9.528325066699e-01 2.090937500000e+02 1.751614357517e+00-8.124266979758e-09
   -4.507330605555e-10 1.000000000000e+00 2.050000000000e+03 0.000000000000e+00
    2.400000000000e+00 0.000000000000e+00 1.396983861923e-09 6.500000000000e+01
    1.296000000000e+05 4.000000000000e+00
27 19  4 22 14  0  0.0-1.143482513726e-04-8.867573342286e-12 0.000000000000e+00
    4.900000000000e+01-1.068125000000e+02 4.051954494455e-09-1.040517080684e+00
   -5.582347512245e-06 7.037782459520e-03 6.042420864105e-06 5.153639789581e+03
    1.368000000000e+05 1.396983861923e-07 2.875764036349e+00-5.029141902924e-08
    9.787801734601e-01 2.722187500000e+02 4.707993259731e-01-7.974617889130e-09
   -3.693010971588e-10 1.000000000000e+00 2.050000000000e+03 0.000000000000e+00
    2.400000000000e+00 0.000000000000e+00 1.396983861923e-09 4.900000000000e+01
    1.296000000000e+05 4.000000000000e+00
